[{"OBJECT_NAME":"STARLINK-34957","OBJECT_ID":"2025-191K","EPOCH":"2026-03-09T14:57:25.121088","MEAN_MOTION":15.0564824,"ECCENTRICITY":0.0001967,"INCLINATION":97.6022,"RA_OF_ASC_NODE":301.5273,"ARG_OF_PERICENTER":62.8793,"MEAN_ANOMALY":297.2634,"EPHEMERIS_TYPE":0,"CLASSIFICATION_TYPE":"U","NORAD_CAT_ID":65388,"ELEMENT_SET_NO":999,"REV_AT_EPOCH":3026,"BSTAR":0.00015399,"MEAN_MOTION_DOT":2.162e-5,"MEAN_MOTION_DDOT":0},{"OBJECT_NAME":"THOR ABLESTAR DEB","OBJECT_ID":"1961-015EX","EPOCH":"2026-03-09T22:58:31.837152","MEAN_MOTION":15.04262729,"ECCENTRICITY":0.00191468,"INCLINATION":67.4961,"RA_OF_ASC_NODE":12.7011,"ARG_OF_PERICENTER":32.2919,"MEAN_ANOMALY":327.9391,"EPHEMERIS_TYPE":0,"CLASSIFICATION_TYPE":"U","NORAD_CAT_ID":461,"ELEMENT_SET_NO":999,"REV_AT_EPOCH":37086,"BSTAR":0.0020469071,"MEAN_MOTION_DOT":0.00028661,"MEAN_MOTION_DDOT":0}]
